[{"OBJECT_NAME":"NEXTSAT-2","OBJECT_ID":"2023-072A","EPOCH":"2026-03-09T23:10:55.073280","MEAN_MOTION":15.26393087,"ECCENTRICITY":0.00062633,"INCLINATION":97.5306,"RA_OF_ASC_NODE":265.1019,"ARG_OF_PERICENTER":22.4193,"MEAN_ANOMALY":337.7318,"EPHEMERIS_TYPE":0,"CLASSIFICATION_TYPE":"U","NORAD_CAT_ID":56743,"ELEMENT_SET_NO":999,"REV_AT_EPOCH":15445,"BSTAR":0.00056400163,"MEAN_MOTION_DOT":0.00014622,"MEAN_MOTION_DDOT":0},{"OBJECT_NAME":"STARLINK-32450","OBJECT_ID":"2024-210L","EPOCH":"2026-03-08T14:04:59.288448","MEAN_MOTION":15.27587636,"ECCENTRICITY":0.00022291,"INCLINATION":42.9994,"RA_OF_ASC_NODE":178.9286,"ARG_OF_PERICENTER":261.1082,"MEAN_ANOMALY":98.9517,"EPHEMERIS_TYPE":0,"CLASSIFICATION_TYPE":"U","NORAD_CAT_ID":61969,"ELEMENT_SET_NO":999,"REV_AT_EPOCH":7469,"BSTAR":0.0012966884,"MEAN_MOTION_DOT":0.00035602,"MEAN_MOTION_DDOT":0}]
